{
    "links": {
        "self": "http://www.neowsapp.com/rest/v1/neo/3257025?api_key=iIulBulltgU6a56xZRHN4H3l9WmuAYTsLGpBGhQ2"
    },
    "id": "3257025",
    "neo_reference_id": "3257025",
    "name": "(2004 TD18)",
    "designation": "2004 TD18",
    "nasa_jpl_url": "http://ssd.jpl.nasa.gov/sbdb.cgi?sstr=3257025",
    "absolute_magnitude_h": 22.2,
    "estimated_diameter": {
        "kilometers": {
            "estimated_diameter_min": 0.096506147,
            "estimated_diameter_max": 0.2157943048
        },
        "meters": {
            "estimated_diameter_min": 96.5061469579,
            "estimated_diameter_max": 215.7943048444
        },
        "miles": {
            "estimated_diameter_min": 0.059966121,
            "estimated_diameter_max": 0.134088323
        },
        "feet": {
            "estimated_diameter_min": 316.6212271853,
            "estimated_diameter_max": 707.9865871058
        }
    },
    "is_potentially_hazardous_asteroid": false,
    "close_approach_data": [
        {
            "close_approach_date": "2004-12-08",
            "close_approach_date_full": "2004-Dec-08 04:46",
            "epoch_date_close_approach": 1102481160000,
            "relative_velocity": {
                "kilometers_per_second": "10.1346303036",
                "kilometers_per_hour": "36484.6690928585",
                "miles_per_hour": "22670.1545260598"
            },
            "miss_distance": {
                "astronomical": "0.1415402671",
                "lunar": "55.0591639019",
                "kilometers": "21174122.477391077",
                "miles": "13156989.6097357826"
            },
            "orbiting_body": "Earth"
        },
        {
            "close_approach_date": "2011-10-28",
            "close_approach_date_full": "2011-Oct-28 13:18",
            "epoch_date_close_approach": 1319807880000,
            "relative_velocity": {
                "kilometers_per_second": "22.2596593388",
                "kilometers_per_hour": "80134.7736196217",
                "miles_per_hour": "49792.6319749255"
            },
            "miss_distance": {
                "astronomical": "0.302131069",
                "lunar": "117.528985841",
                "kilometers": "45198164.38322303",
                "miles": "28084837.036536614"
            },
            "orbiting_body": "Earth"
        },
        {
            "close_approach_date": "2030-03-02",
            "close_approach_date_full": "2030-Mar-02 14:34",
            "epoch_date_close_approach": 1898692440000,
            "relative_velocity": {
                "kilometers_per_second": "15.4265118194",
                "kilometers_per_hour": "55535.4425497295",
                "miles_per_hour": "34507.5642887472"
            },
            "miss_distance": {
                "astronomical": "0.0394088631",
                "lunar": "15.3300477459",
                "kilometers": "5895481.978881597",
                "miles": "3663282.6330041586"
            },
            "orbiting_body": "Mars"
        }
    ],
    "orbital_data": {
        "orbit_id": "15",
        "orbit_determination_date": "2017-04-06 09:11:59",
        "first_observation_date": "2004-10-07",
        "last_observation_date": "2004-11-11",
        "data_arc_in_days": 35,
        "observations_used": 41,
        "orbit_uncertainty": "7",
        "minimum_orbit_intersection": ".00399793",
        "jupiter_tisserand_invariant": "3.947",
        "epoch_osculation": "2459000.5",
        "eccentricity": ".5463059204330035",
        "semi_major_axis": "1.746718285367819",
        "inclination": "3.891901391576168",
        "ascending_node_longitude": "186.7687515743855",
        "orbital_period": "843.2041334887037",
        "perihelion_distance": ".792475744742795",
        "perihelion_argument": "291.3396401551158",
        "aphelion_distance": "2.700960825992843",
        "perihelion_time": "2459282.039129953849",
        "mean_anomaly": "239.7988734186591",
        "mean_motion": ".4269428786010842",
        "equinox": "J2000",
        "orbit_class": {
            "orbit_class_type": "APO",
            "orbit_class_description": "Near-Earth asteroid orbits which cross the Earth’s orbit similar to that of 1862 Apollo",
            "orbit_class_range": "a (semi-major axis) > 1.0 AU; q (perihelion) < 1.017 AU"
        }
    },
    "is_sentry_object": false
}